CCSDS_OMM_VERS = 2.0
CREATION_DATE  = 
ORIGINATOR     = 

OBJECT_NAME    = SL-14 R/B
OBJECT_ID      = 1991-042B
CENTER_NAME    = EARTH
REF_FRAME      = TEME
TIME_SYSTEM    = UTC
MEAN_ELEMENT_THEORY = SGP/SGP4

EPOCH          = 2026-03-02T12:46:44.619168
MEAN_MOTION    = 14.81820829
ECCENTRICITY   = .00155724
INCLINATION    = 82.4910
RA_OF_ASC_NODE = 226.8943
ARG_OF_PERICENTER = 264.2435
MEAN_ANOMALY   = 95.7004

EPHEMERIS_TYPE = 0
CLASSIFICATION_TYPE = U
NORAD_CAT_ID   = 21423
ELEMENT_SET_NO = 999
REV_AT_EPOCH   = 85201
BSTAR          = .74620594E-4
MEAN_MOTION_DOT = .613E-5
MEAN_MOTION_DDOT = 0

CCSDS_OMM_VERS = 2.0
CREATION_DATE  = 
ORIGINATOR     = 

OBJECT_NAME    = ERS-1
OBJECT_ID      = 1991-050A
CENTER_NAME    = EARTH
REF_FRAME      = TEME
TIME_SYSTEM    = UTC
MEAN_ELEMENT_THEORY = SGP/SGP4

EPOCH          = 2026-03-02T14:34:21.481248
MEAN_MOTION    = 14.39442783
ECCENTRICITY   = .00312518
INCLINATION    = 98.7887
RA_OF_ASC_NODE = 79.6638
ARG_OF_PERICENTER = 221.7763
MEAN_ANOMALY   = 138.1038

EPHEMERIS_TYPE = 0
CLASSIFICATION_TYPE = U
NORAD_CAT_ID   = 21574
ELEMENT_SET_NO = 999
REV_AT_EPOCH   = 81471
BSTAR          = .13786073E-3
MEAN_MOTION_DOT = .385E-5
MEAN_MOTION_DDOT = 0

CCSDS_OMM_VERS = 2.0
CREATION_DATE  = 
ORIGINATOR     = 

OBJECT_NAME    = ARIANE 40 R/B
OBJECT_ID      = 1991-050F
CENTER_NAME    = EARTH
REF_FRAME      = TEME
TIME_SYSTEM    = UTC
MEAN_ELEMENT_THEORY = SGP/SGP4

EPOCH          = 2026-03-02T14:32:07.941408
MEAN_MOTION    = 14.42887484
ECCENTRICITY   = .00043763
INCLINATION    = 98.2027
RA_OF_ASC_NODE = 114.1076
ARG_OF_PERICENTER = 96.6176
MEAN_ANOMALY   = 263.5513

EPHEMERIS_TYPE = 0
CLASSIFICATION_TYPE = U
NORAD_CAT_ID   = 21610
ELEMENT_SET_NO = 999
REV_AT_EPOCH   = 81797
BSTAR          = .1208938E-3
MEAN_MOTION_DOT = .362E-5
MEAN_MOTION_DDOT = 0

CCSDS_OMM_VERS = 2.0
CREATION_DATE  = 
ORIGINATOR     = 

OBJECT_NAME    = INTERCOSMOS 25
OBJECT_ID      = 1991-086A
CENTER_NAME    = EARTH
REF_FRAME      = TEME
TIME_SYSTEM    = UTC
MEAN_ELEMENT_THEORY = SGP/SGP4

EPOCH          = 2026-03-02T15:22:16.841280
MEAN_MOTION    = 12.11976719
ECCENTRICITY   = .14870738
INCLINATION    = 82.6065
RA_OF_ASC_NODE = 314.2683
ARG_OF_PERICENTER = 132.1187
MEAN_ANOMALY   = 241.6319

EPHEMERIS_TYPE = 0
CLASSIFICATION_TYPE = U
NORAD_CAT_ID   = 21819
ELEMENT_SET_NO = 999
REV_AT_EPOCH   = 49583
BSTAR          = .3067142E-3
MEAN_MOTION_DOT = .1598E-4
MEAN_MOTION_DDOT = 0

CCSDS_OMM_VERS = 2.0
CREATION_DATE  = 
ORIGINATOR     = 

OBJECT_NAME    = SL-8 R/B
OBJECT_ID      = 1992-008B
CENTER_NAME    = EARTH
REF_FRAME      = TEME
TIME_SYSTEM    = UTC
MEAN_ELEMENT_THEORY = SGP/SGP4

EPOCH          = 2026-03-02T14:15:38.522304
MEAN_MOTION    = 13.75969816
ECCENTRICITY   = .00351981
INCLINATION    = 82.9228
RA_OF_ASC_NODE = 273.0578
ARG_OF_PERICENTER = 152.6662
MEAN_ANOMALY   = 261.8060

EPHEMERIS_TYPE = 0
CLASSIFICATION_TYPE = U
NORAD_CAT_ID   = 21876
ELEMENT_SET_NO = 999
REV_AT_EPOCH   = 70844
BSTAR          = -.11428802E-4
MEAN_MOTION_DOT = .4E-7
MEAN_MOTION_DDOT = 0

CCSDS_OMM_VERS = 2.0
CREATION_DATE  = 
ORIGINATOR     = 

OBJECT_NAME    = SL-8 R/B
OBJECT_ID      = 1992-020B
CENTER_NAME    = EARTH
REF_FRAME      = TEME
TIME_SYSTEM    = UTC
MEAN_ELEMENT_THEORY = SGP/SGP4

EPOCH          = 2026-03-02T15:31:12.178272
MEAN_MOTION    = 13.75548497
ECCENTRICITY   = .00279312
INCLINATION    = 82.9341
RA_OF_ASC_NODE = 158.9892
ARG_OF_PERICENTER = 319.3027
MEAN_ANOMALY   = 152.0732

EPHEMERIS_TYPE = 0
CLASSIFICATION_TYPE = U
NORAD_CAT_ID   = 21938
ELEMENT_SET_NO = 999
REV_AT_EPOCH   = 70016
BSTAR          = .70000105E-4
MEAN_MOTION_DOT = .82E-6
MEAN_MOTION_DDOT = 0

CCSDS_OMM_VERS = 2.0
CREATION_DATE  = 
ORIGINATOR     = 

OBJECT_NAME    = USA 81
OBJECT_ID      = 1992-023A
CENTER_NAME    = EARTH
REF_FRAME      = TEME
TIME_SYSTEM    = UTC
MEAN_ELEMENT_THEORY = SGP/SGP4

EPOCH          = 2026-03-02T14:28:33.835296
MEAN_MOTION    = 14.32365132
ECCENTRICITY   = .00026476
INCLINATION    = 85.0099
RA_OF_ASC_NODE = 135.5289
ARG_OF_PERICENTER = 83.3974
MEAN_ANOMALY   = 276.7520

EPHEMERIS_TYPE = 0
CLASSIFICATION_TYPE = U
NORAD_CAT_ID   = 21949
ELEMENT_SET_NO = 999
REV_AT_EPOCH   = 9377
BSTAR          = .70762669E-4
MEAN_MOTION_DOT = .211E-5
MEAN_MOTION_DDOT = 0

CCSDS_OMM_VERS = 2.0
CREATION_DATE  = 
ORIGINATOR     = 

OBJECT_NAME    = COSMOS 2219
OBJECT_ID      = 1992-076A
CENTER_NAME    = EARTH
REF_FRAME      = TEME
TIME_SYSTEM    = UTC
MEAN_ELEMENT_THEORY = SGP/SGP4

EPOCH          = 2026-03-02T09:02:05.442432
MEAN_MOTION    = 14.14088325
ECCENTRICITY   = .00193723
INCLINATION    = 71.0614
RA_OF_ASC_NODE = 33.3548
ARG_OF_PERICENTER = 216.8071
MEAN_ANOMALY   = 143.1723

EPHEMERIS_TYPE = 0
CLASSIFICATION_TYPE = U
NORAD_CAT_ID   = 22219
ELEMENT_SET_NO = 999
REV_AT_EPOCH   = 71734
BSTAR          = .19930155E-3
MEAN_MOTION_DOT = .333E-5
MEAN_MOTION_DDOT = 0

CCSDS_OMM_VERS = 2.0
CREATION_DATE  = 
ORIGINATOR     = 

OBJECT_NAME    = SL-16 R/B
OBJECT_ID      = 1992-076B
CENTER_NAME    = EARTH
REF_FRAME      = TEME
TIME_SYSTEM    = UTC
MEAN_ELEMENT_THEORY = SGP/SGP4

EPOCH          = 2026-03-02T15:02:35.450880
MEAN_MOTION    = 14.16859667
ECCENTRICITY   = .00106707
INCLINATION    = 70.9997
RA_OF_ASC_NODE = 203.2500
ARG_OF_PERICENTER = 109.3304
MEAN_ANOMALY   = 261.8069

EPHEMERIS_TYPE = 0
CLASSIFICATION_TYPE = U
NORAD_CAT_ID   = 22220
ELEMENT_SET_NO = 999
REV_AT_EPOCH   = 72083
BSTAR          = .79566904E-4
MEAN_MOTION_DOT = .112E-5
MEAN_MOTION_DDOT = 0

CCSDS_OMM_VERS = 2.0
CREATION_DATE  = 
ORIGINATOR     = 

OBJECT_NAME    = COSMOS 2221
OBJECT_ID      = 1992-080A
CENTER_NAME    = EARTH
REF_FRAME      = TEME
TIME_SYSTEM    = UTC
MEAN_ELEMENT_THEORY = SGP/SGP4

EPOCH          = 2026-03-02T14:45:46.482912
MEAN_MOTION    = 14.96168684
ECCENTRICITY   = .00134196
INCLINATION    = 82.5019
RA_OF_ASC_NODE = 285.8586
ARG_OF_PERICENTER = 211.9805
MEAN_ANOMALY   = 148.0604

EPHEMERIS_TYPE = 0
CLASSIFICATION_TYPE = U
NORAD_CAT_ID   = 22236
ELEMENT_SET_NO = 999
REV_AT_EPOCH   = 77973
BSTAR          = .17872996E-3
MEAN_MOTION_DOT = .2041E-4
MEAN_MOTION_DDOT = 0

CCSDS_OMM_VERS = 2.0
CREATION_DATE  = 
ORIGINATOR     = 

OBJECT_NAME    = SL-16 R/B
OBJECT_ID      = 1992-093B
CENTER_NAME    = EARTH
REF_FRAME      = TEME
TIME_SYSTEM    = UTC
MEAN_ELEMENT_THEORY = SGP/SGP4

EPOCH          = 2026-03-02T07:39:33.582816
MEAN_MOTION    = 14.15449670
ECCENTRICITY   = .00062408
INCLINATION    = 71.0236
RA_OF_ASC_NODE = 19.7372
ARG_OF_PERICENTER = 301.6294
MEAN_ANOMALY   = 58.4220

EPHEMERIS_TYPE = 0
CLASSIFICATION_TYPE = U
NORAD_CAT_ID   = 22285
ELEMENT_SET_NO = 999
REV_AT_EPOCH   = 71211
BSTAR          = -.28638843E-4
MEAN_MOTION_DOT = -.104E-5
MEAN_MOTION_DDOT = 0

CCSDS_OMM_VERS = 2.0
CREATION_DATE  = 
ORIGINATOR     = 

OBJECT_NAME    = COSMOS 2228
OBJECT_ID      = 1992-094A
CENTER_NAME    = EARTH
REF_FRAME      = TEME
TIME_SYSTEM    = UTC
MEAN_ELEMENT_THEORY = SGP/SGP4

EPOCH          = 2026-03-02T13:39:49.203936
MEAN_MOTION    = 14.97146781
ECCENTRICITY   = .00172382
INCLINATION    = 82.5144
RA_OF_ASC_NODE = 244.1293
ARG_OF_PERICENTER = 330.0839
MEAN_ANOMALY   = 29.9396

EPHEMERIS_TYPE = 0
CLASSIFICATION_TYPE = U
NORAD_CAT_ID   = 22286
ELEMENT_SET_NO = 999
REV_AT_EPOCH   = 77499
BSTAR          = .23962934E-3
MEAN_MOTION_DOT = .28E-4
MEAN_MOTION_DDOT = 0

