SL-14 R/B               
1 21423U 91042B   26061.53246087  .00000613  00000+0  74621-4 0  9991
2 21423  82.4910 226.8943 0015572 264.2435  95.7004 14.81820829852012
ERS-1                   
1 21574U 91050A   26061.60719307  .00000385  00000+0  13786-3 0  9995
2 21574  98.7887  79.6638 0031251 221.7763 138.1038 14.39442783814717
ARIANE 40 R/B           
1 21610U 91050F   26061.60564747  .00000362  00000+0  12089-3 0  9992
2 21610  98.2027 114.1076 0004376  96.6176 263.5513 14.42887484817972
INTERCOSMOS 25          
1 21819U 91086A   26061.64047270  .00001598  00000+0  30671-3 0  9992
2 21819  82.6065 314.2683 1487073 132.1187 241.6319 12.11976719495839
SL-8 R/B                
1 21876U 92008B   26061.59419586  .00000004  00000+0 -11429-4 0  9990
2 21876  82.9228 273.0578 0035198 152.6662 261.8060 13.75969816708444
SL-8 R/B                
1 21938U 92020B   26061.64666873  .00000082  00000+0  70000-4 0  9997
2 21938  82.9341 158.9892 0027931 319.3027 152.0732 13.75548497700168
USA 81                  
1 21949U 92023A   26061.60316939  .00000211  00000+0  70763-4 0  9993
2 21949  85.0099 135.5289 0002647  83.3974 276.7520 14.32365132 93779
COSMOS 2219             
1 22219U 92076A   26061.37645188  .00000333  00000+0  19930-3 0  9990
2 22219  71.0614  33.3548 0019372 216.8071 143.1723 14.14088325717349
SL-16 R/B               
1 22220U 92076B   26061.62679920  .00000112  00000+0  79567-4 0  9999
2 22220  70.9997 203.2500 0010670 109.3304 261.8069 14.16859667720832
COSMOS 2221             
1 22236U 92080A   26061.61512133  .00002041  00000+0  17873-3 0  9996
2 22236  82.5019 285.8586 0013419 211.9805 148.0604 14.96168684779737
SL-16 R/B               
1 22285U 92093B   26061.31913869 -.00000104  00000+0 -28639-4 0  9995
2 22285  71.0236  19.7372 0006240 301.6294  58.4220 14.15449670712110
COSMOS 2228             
1 22286U 92094A   26061.56931949  .00002800  00000+0  23963-3 0  9990
2 22286  82.5144 244.1293 0017238 330.0839  29.9396 14.97146781774990
